COMMENT,ORIGINATOR,NORAD_CAT_ID,OBJECT_NAME,OBJECT_TYPE,CLASSIFICATION_TYPE,INTLDES,EPOCH,EPOCH_MICROSECONDS,MEAN_MOTION,ECCENTRICITY,INCLINATION,RA_OF_ASC_NODE,ARG_OF_PERICENTER,MEAN_ANOMALY,EPHEMERIS_TYPE,ELEMENT_SET_NO,REV_AT_EPOCH,BSTAR,MEAN_MOTION_DOT,MEAN_MOTION_DDOT,FILE,TLE_LINE0,TLE_LINE1,TLE_LINE2,OBJECT_ID,OBJECT_NUMBER,SEMIMAJOR_AXIS,PERIOD,APOGEE,PERIGEE,DECAYED
"GENERATED VIA SPACETRACK.ORG API","18 SPCS","48895","SPACEBEE-108","PAYLOAD","U","21059S","2023-11-16 08:38:45","558528","15.47219162","0.0002433","97.6104","102.712","90.3342","269.8186","0","999","13277","0.0012367","0.00063239","0","4092089","0 SPACEBEE-108","1 48895U 21059S   23320.36024952  .00063239  00000-0  12367-2 0  9996","2 48895  97.6104 102.7120 0002433  90.3342 269.8186 15.47219162132777","2021-059S","48895","6803.002","93.070","426.522","423.212","0"
"GENERATED VIA SPACETRACK.ORG API","18 SPCS","48895","SPACEBEE-108","PAYLOAD","U","21059S","2023-11-16 08:38:45","558528","15.47219162","0.0002433","97.6104","102.712","90.3342","269.8186","0","999","13277","0.0012367","0.00063239","0","4092274","0 SPACEBEE-108","1 48895U 21059S   23320.36024952  .00063239  00000-0  12367-2 0  9996","2 48895  97.6104 102.7120 0002433  90.3342 269.8186 15.47219162132777","2021-059S","48895","6803.002","93.070","426.522","423.212","0"
"GENERATED VIA SPACETRACK.ORG API","18 SPCS","48895","SPACEBEE-108","PAYLOAD","U","21059S","2023-11-17 09:28:47","512704","15.47345846","0.0002478","97.6105","103.7996","86.3988","273.7544","0","999","13293","0.0010709","0.00054929","0","4093417","0 SPACEBEE-108","1 48895U 21059S   23321.39499436  .00054929  00000-0  10709-2 0  9997","2 48895  97.6105 103.7996 0002478  86.3988 273.7544 15.47345846132939","2021-059S","48895","6802.631","93.063","426.182","422.810","0"
"GENERATED VIA SPACETRACK.ORG API","18 SPCS","48895","SPACEBEE-108","PAYLOAD","U","21059S","2023-11-17 09:28:47","512704","15.47345846","0.0002478","97.6105","103.7996","86.3988","273.7544","0","999","13293","0.0010709","0.00054929","0","4093899","0 SPACEBEE-108","1 48895U 21059S   23321.39499436  .00054929  00000-0  10709-2 0  9997","2 48895  97.6105 103.7996 0002478  86.3988 273.7544 15.47345846132939","2021-059S","48895","6802.631","93.063","426.182","422.810","0"
"GENERATED VIA SPACETRACK.ORG API","18 SPCS","48895","SPACEBEE-108","PAYLOAD","U","21059S","2023-11-17 15:41:16","934208","15.4736757","0.0002489","97.6105","104.0721","84.4481","275.7052","0","999","13297","0.0010047","0.00051544","0","4094359","0 SPACEBEE-108","1 48895U 21059S   23321.65366822  .00051544  00000-0  10047-2 0  9993","2 48895  97.6105 104.0721 0002489  84.4481 275.7052 15.47367570132976","2021-059S","48895","6802.567","93.061","426.125","422.739","0"
"GENERATED VIA SPACETRACK.ORG API","18 SPCS","48895","SPACEBEE-108","PAYLOAD","U","21059S","2023-11-18 08:45:35","898048","15.47443466","0.0002482","97.6101","104.8194","82.6804","277.4727","0","999","13308","0.00097104","0.00049935","0","4095055","0 SPACEBEE-108","1 48895U 21059S   23322.36499882  .00049935  00000-0  97104-3 0  9996","2 48895  97.6101 104.8194 0002482  82.6804 277.4727 15.47443466133086","2021-059S","48895","6802.345","93.057","425.898","422.522","0"
"GENERATED VIA SPACETRACK.ORG API","18 SPCS","48895","SPACEBEE-108","PAYLOAD","U","21059S","2023-11-18 08:45:35","898048","15.47443466","0.0002482","97.6101","104.8194","82.6804","277.4727","0","999","13308","0.00097104","0.00049935","0","4095448","0 SPACEBEE-108","1 48895U 21059S   23322.36499882  .00049935  00000-0  97104-3 0  9996","2 48895  97.6101 104.8194 0002482  82.6804 277.4727 15.47443466133086","2021-059S","48895","6802.345","93.057","425.898","422.522","0"
"GENERATED VIA SPACETRACK.ORG API","18 SPCS","48895","SPACEBEE-108","PAYLOAD","U","21059S","2023-11-19 09:35:25","440000","15.47557058","0.0002485","97.6105","105.9072","78.2175","281.9353","0","999","13324","0.0010201","0.00052687","0","4096534","0 SPACEBEE-108","1 48895U 21059S   23323.39960000  .00052687  00000-0  10201-2 0  9995","2 48895  97.6105 105.9072 0002485  78.2175 281.9353 15.47557058133248","2021-059S","48895","6802.012","93.050","425.567","422.187","0"
"GENERATED VIA SPACETRACK.ORG API","18 SPCS","48895","SPACEBEE-108","PAYLOAD","U","21059S","2023-11-19 09:35:25","440000","15.47557058","0.0002485","97.6105","105.9072","78.2175","281.9353","0","999","13324","0.0010201","0.00052687","0","4096886","0 SPACEBEE-108","1 48895U 21059S   23323.39960000  .00052687  00000-0  10201-2 0  9995","2 48895  97.6105 105.9072 0002485  78.2175 281.9353 15.47557058133248","2021-059S","48895","6802.012","93.050","425.567","422.187","0"
"GENERATED VIA SPACETRACK.ORG API","18 SPCS","48895","SPACEBEE-108","PAYLOAD","U","21059S","2023-11-19 22:00:17","747712","15.47610277","0.0002519","97.6101","106.4514","75.4044","284.7485","0","999","13332","0.00098237","0.00050817","0","4097440","0 SPACEBEE-108","1 48895U 21059S   23323.91687208  .00050817  00000-0  98237-3 0  9998","2 48895  97.6101 106.4514 0002519  75.4044 284.7485 15.47610277133322","2021-059S","48895","6801.856","93.047","425.434","422.008","0"
"GENERATED VIA SPACETRACK.ORG API","18 SPCS","48895","SPACEBEE-108","PAYLOAD","U","21059S","2023-11-20 08:52:02","15328","15.47671536","0.0002533","97.61","106.9271","74.5572","285.5957","0","999","13339","0.0011383","0.00059085","0","4098394","0 SPACEBEE-108","1 48895U 21059S   23324.36946777  .00059085  00000-0  11383-2 0  9999","2 48895  97.6100 106.9271 0002533  74.5572 285.5957 15.47671536133393","2021-059S","48895","6801.677","93.043","425.264","421.819","0"
"GENERATED VIA SPACETRACK.ORG API","18 SPCS","48895","SPACEBEE-108","PAYLOAD","U","21059S","2023-11-20 15:04:26","679648","15.47701713","0.000259","97.61","107.1994","71.8381","288.315","0","999","13343","0.0012585","0.00065456","0","4098467","0 SPACEBEE-108","1 48895U 21059S   23324.62808657  .00065456  00000-0  12585-2 0  9996","2 48895  97.6100 107.1994 0002590  71.8381 288.3150 15.47701713133431","2021-059S","48895","6801.588","93.041","425.215","421.692","0"
"GENERATED VIA SPACETRACK.ORG API","18 SPCS","48895","SPACEBEE-108","PAYLOAD","U","21059S","2023-11-20 21:16:50","843712","15.477382","0.0002621","97.6099","107.4714","70.2272","289.926","0","999","13347","0.0012222","0.00063631","0","4099015","0 SPACEBEE-108","1 48895U 21059S   23324.88669958  .00063631  00000-0  12222-2 0  9994","2 48895  97.6099 107.4714 0002621  70.2272 289.9260 15.47738200133472","2021-059S","48895","6801.481","93.039","425.129","421.564","0"
"GENERATED VIA SPACETRACK.ORG API","18 SPCS","48895","SPACEBEE-108","PAYLOAD","U","21059S","2023-11-21 09:41:37","491360","15.4781515","0.0002659","97.6098","108.0153","69.7998","290.3537","0","999","13355","0.001141","0.00059525","0","4100115","0 SPACEBEE-108","1 48895U 21059S   23325.40390615  .00059525  00000-0  11410-2 0  9999","2 48895  97.6098 108.0153 0002659  69.7998 290.3537 15.47815150133556","2021-059S","48895","6801.256","93.034","424.929","421.312","0"
"GENERATED VIA SPACETRACK.ORG API","18 SPCS","48895","SPACEBEE-108","PAYLOAD","U","21059S","2023-11-21 20:33:16","517952","15.47888902","0.0002731","97.6094","108.4918","66.9961","293.1576","0","999","13362","0.0017041","0.00089519","0","4100393","0 SPACEBEE-108","1 48895U 21059S   23325.85644118  .00089519  00000-0  17041-2 0  9990","2 48895  97.6094 108.4918 0002731  66.9961 293.1576 15.47888902133622","2021-059S","48895","6801.040","93.030","424.762","421.047","0"
"GENERATED VIA SPACETRACK.ORG API","18 SPCS","48895","SPACEBEE-108","PAYLOAD","U","21059S","2023-11-21 22:06:21","905568","15.47902581","0.0002719","97.6094","108.5598","66.2099","293.9436","0","999","13363","0.0017257","0.00090711","0","4100435","0 SPACEBEE-108","1 48895U 21059S   23325.92108687  .00090711  00000-0  17257-2 0  9999","2 48895  97.6094 108.5598 0002719  66.2099 293.9436 15.47902581133632","2021-059S","48895","6801.000","93.029","424.714","421.016","0"
"GENERATED VIA SPACETRACK.ORG API","18 SPCS","48895","SPACEBEE-108","PAYLOAD","U","21059S","2023-11-22 08:57:58","406688","15.47995865","0.0002634","97.6095","109.0359","61.67","298.4815","0","999","13370","0.001855","0.0009792","0","4101817","0 SPACEBEE-108","1 48895U 21059S   23326.37359267  .00097920  00000-0  18550-2 0  9997","2 48895  97.6095 109.0359 0002634  61.6700 298.4815 15.47995865133704","2021-059S","48895","6800.727","93.024","424.383","420.800","0"
"GENERATED VIA SPACETRACK.ORG API","18 SPCS","48895","SPACEBEE-108","PAYLOAD","U","21059S","2023-11-22 08:57:58","406688","15.47995865","0.0002634","97.6095","109.0359","61.67","298.4815","0","999","13370","0.001855","0.0009792","0","4101915","0 SPACEBEE-108","1 48895U 21059S   23326.37359267  .00097920  00000-0  18550-2 0  9997","2 48895  97.6095 109.0359 0002634  61.6700 298.4815 15.47995865133704","2021-059S","48895","6800.727","93.024","424.383","420.800","0"
"GENERATED VIA SPACETRACK.ORG API","18 SPCS","48895","SPACEBEE-108","PAYLOAD","U","21059S","2023-11-22 21:22:37","191072","15.48103854","0.0002686","97.6094","109.5807","57.8427","302.3083","0","999","13378","0.0018417","0.00097578","0","4102346","0 SPACEBEE-108","1 48895U 21059S   23326.89070823  .00097578  00000-0  18417-2 0  9993","2 48895  97.6094 109.5807 0002686  57.8427 302.3083 15.48103854133786","2021-059S","48895","6800.410","93.017","424.102","420.449","0"
"GENERATED VIA SPACETRACK.ORG API","18 SPCS","48895","SPACEBEE-108","PAYLOAD","U","21059S","2023-11-23 08:14:08","441664","15.48203144","0.0002714","97.6095","110.0569","55.6951","304.4556","0","999","13385","0.0017864","0.0009494","0","4102959","0 SPACEBEE-108","1 48895U 21059S   23327.34315326  .00094940  00000-0  17864-2 0  9999","2 48895  97.6095 110.0569 0002714  55.6951 304.4556 15.48203144133858","2021-059S","48895","6800.119","93.011","423.830","420.139","0"
